NORAD_CAT_ID,OBJECT_NAME,OBJECT_TYPE,EPOCH,MEAN_MOTION,ECCENTRICITY,INCLINATION,RA_OF_ASC_NODE,ARG_OF_PERICENTER,MEAN_ANOMALY,BSTAR,MEAN_MOTION_DOT,MEAN_MOTION_DDOT,TLE_LINE0,TLE_LINE1,TLE_LINE2,SEMIMAJOR_AXIS,PERIOD,APOGEE,PERIGEE,DECAYED
55951.0,STARLINK-5908,PAYLOAD,2024-05-05 13:00:08,14.98335005,0.0002778,70.0004,181.5238,252.2798,107.8058,-3.4232e-05,-5.01e-06,0.0,0 STARLINK-5908,1 55951U 23037AP  24126.54176006 -.00000501  00000-0 -34232-4 0  9990,2 55951  70.0004 181.5238 0002778 252.2798 107.8058 14.98335005 63157,6950.177,96.107,573.973,570.112,0.0
55951.0,STARLINK-5908,PAYLOAD,2024-05-05 21:00:48,14.98336276,0.0003016,69.9994,180.6785,260.1496,99.9322,-8.6732e-06,-1.97e-06,0.0,0 STARLINK-5908,1 55951U 23037AP  24126.87555749 -.00000197  00000-0 -86732-5 0  9995,2 55951  69.9994 180.6785 0003016 260.1496  99.9322 14.98336276 63200,6950.173,96.107,574.135,569.942,0.0
55951.0,STARLINK-5908,PAYLOAD,2024-05-06 05:01:28,14.98326211,0.0002947,69.9992,179.8368,269.6766,90.4055,0.00025012,2.892e-05,0.0,0 STARLINK-5908,1 55951U 23037AP  24127.20935864  .00002892  00000-0  25012-3 0  9997,2 55951  69.9992 179.8368 0002947 269.6766  90.4055 14.98326211 63590,6950.205,96.107,574.118,570.021,0.0
55951.0,STARLINK-5908,PAYLOAD,2024-05-06 13:02:08,14.98333457,0.0002917,69.9992,178.995,270.0188,90.0636,0.00027291,3.165e-05,0.0,0 STARLINK-5908,1 55951U 23037AP  24127.54315473  .00003165  00000-0  27291-3 0  9997,2 55951  69.9992 178.9950 0002917 270.0188  90.0636 14.98333457 63308,6950.182,96.107,574.075,570.02,0.0
55951.0,STARLINK-5908,PAYLOAD,2024-05-06 21:02:49,14.98331982,0.0002837,69.9993,178.1527,270.0593,90.0241,8.9012e-05,9.69e-06,0.0,0 STARLINK-5908,1 55951U 23037AP  24127.87695932  .00000969  00000-0  89012-4 0  9993,2 55951  69.9993 178.1527 0002837 270.0593  90.0241 14.98331982 63350,6950.187,96.107,574.024,570.08,0.0
55951.0,STARLINK-5908,PAYLOAD,2024-05-07 05:03:29,14.98334043,0.0002846,69.9991,177.3111,269.9303,90.153,4.2507e-05,4.14e-06,0.0,0 STARLINK-5908,1 55951U 23037AP  24128.21075911  .00000414  00000-0  42507-4 0  9994,2 55951  69.9991 177.3111 0002846 269.9303  90.1530 14.98334043 63740,6950.18,96.107,574.023,570.067,0.0
55951.0,STARLINK-5908,PAYLOAD,2024-05-07 13:04:10,14.98331519,0.0002905,69.9992,176.4696,270.0654,90.0172,4.3871e-06,-4.1e-07,0.0,0 STARLINK-5908,1 55951U 23037AP  24128.54456056 -.00000041  00000-0  43871-5 0  9996,2 55951  69.9992 176.4696 0002905 270.0654  90.0172 14.98331519 63451,6950.188,96.107,574.072,570.034,0.0
55951.0,STARLINK-5908,PAYLOAD,2024-05-08 05:05:30,14.98333216,0.0002913,69.9992,174.7864,270.216,89.8665,-3.1357e-05,-4.67e-06,0.0,0 STARLINK-5908,1 55951U 23037AP  24129.21215930 -.00000467  00000-0 -31357-4 0  9993,2 55951  69.9992 174.7864 0002913 270.2160  89.8665 14.98333216 63899,6950.183,96.107,574.073,570.023,0.0
55951.0,STARLINK-5908,PAYLOAD,2024-05-08 13:06:10,14.98332614,0.0002986,69.9993,173.9454,271.5626,88.5191,-7.3406e-05,-9.69e-06,0.0,0 STARLINK-5908,1 55951U 23037AP  24129.54596013 -.00000969  00000-0 -73406-4 0  9991,2 55951  69.9993 173.9454 0002986 271.5626  88.5191 14.98332614 63607,6950.185,96.107,574.125,569.974,0.0
55951.0,STARLINK-5908,PAYLOAD,2024-05-09 05:07:31,14.98333533,0.0003141,69.9991,172.2623,270.4951,89.5848,8.7681e-05,9.53e-06,0.0,0 STARLINK-5908,1 55951U 23037AP  24130.21355371  .00000953  00000-0  87681-4 0  9998,2 55951  69.9991 172.2623 0003141 270.4951  89.5848 14.98333533 64048,6950.182,96.107,574.23,569.864,0.0
55951.0,STARLINK-5908,PAYLOAD,2024-05-09 13:08:11,14.98336737,0.0003114,69.9992,171.4213,269.5053,90.5749,9.9467e-05,1.094e-05,0.0,0 STARLINK-5908,1 55951U 23037AP  24130.54735100  .00001094  00000-0  99467-4 0  9998,2 55951  69.9992 171.4213 0003114 269.5053  90.5749 14.98336737 63755,6950.172,96.107,574.201,569.873,0.0
55951.0,STARLINK-5908,PAYLOAD,2024-05-10 03:33:22,14.98350217,0.00034,69.9985,169.9049,273.0254,87.0516,0.00025244,2.922e-05,0.0,0 STARLINK-5908,1 55951U 23037AP  24131.14817450  .00002922  00000-0  25244-3 0  9996,2 55951  69.9985 169.9049 0003400 273.0254  87.0516 14.98350217 64187,6950.13,96.106,574.358,569.632,0.0
55951.0,STARLINK-5908,PAYLOAD,2024-05-10 11:34:01,14.98355961,0.0003344,69.9986,169.0637,272.1514,87.9262,0.00030895,3.598e-05,0.0,0 STARLINK-5908,1 55951U 23037AP  24131.48196670  .00003598  00000-0  30895-3 0  9995,2 55951  69.9986 169.0637 0003344 272.1514  87.9262 14.98355961 63893,6950.113,96.105,574.302,569.653,0.0
55951.0,STARLINK-5908,PAYLOAD,2024-05-10 19:34:41,14.98414226,0.0002846,70.0016,168.2217,267.1988,92.8846,-0.001258,-0.00015104,0.0,0 STARLINK-5908,1 55951U 23037AP  24131.81575446 -.00015104  00000-0 -12580-2 0  9992,2 55951  70.0016 168.2217 0002846 267.1988  92.8846 14.98414226 64287,6949.932,96.102,573.775,569.819,0.0
55951.0,STARLINK-5908,PAYLOAD,2024-05-11 05:11:31,14.98338257,0.0002548,70.0023,167.2178,256.563,103.5245,6.8319e-05,7.22e-06,0.0,0 STARLINK-5908,1 55951U 23037AP  24132.21634056  .00000722  00000-0  68319-4 0  9991,2 55951  70.0023 167.2178 0002548 256.5630 103.5245 14.98338257 64344,6950.167,96.106,573.803,570.261,0.0
55951.0,STARLINK-5908,PAYLOAD,2024-05-11 11:36:03,14.98346609,0.0002589,70.0008,166.5433,260.3402,99.7465,0.00013538,1.523e-05,0.0,0 STARLINK-5908,1 55951U 23037AP  24132.48337070  .00001523  00000-0  13538-3 0  9998,2 55951  70.0008 166.5433 0002589 260.3402  99.7465 14.98346609 64382,6950.142,96.106,573.806,570.207,0.0
55951.0,STARLINK-5908,PAYLOAD,2024-05-11 19:36:44,14.98336106,0.0003144,69.9982,165.6961,266.3443,93.7356,-0.00014354,-1.806e-05,0.0,0 STARLINK-5908,1 55951U 23037AP  24132.81717899 -.00001806  00000-0 -14354-3 0  9999,2 55951  69.9982 165.6961 0003144 266.3443  93.7356 14.98336106 64435,6950.174,96.107,574.224,569.854,0.0
55951.0,STARLINK-5908,PAYLOAD,2024-05-12 05:13:33,14.98312865,0.0003205,70.0003,164.6877,260.7256,99.3541,-0.00058364,-7.047e-05,0.0,0 STARLINK-5908,1 55951U 23037AP  24133.21774462 -.00007047  00000-0 -58364-3 0  9995,2 55951  70.0003 164.6877 0003205 260.7256  99.3541 14.98312865 64495,6950.246,96.108,574.338,569.883,0.0
55951.0,STARLINK-5908,PAYLOAD,2024-05-12 11:38:05,14.98312944,0.0003367,69.9995,164.0138,263.5151,96.5625,-0.00052031,-6.293e-05,0.0,0 STARLINK-5908,1 55951U 23037AP  24133.48478757 -.00006293  00000-0 -52031-3 0  9999,2 55951  69.9995 164.0138 0003367 263.5151  96.5625 14.98312944 64197,6950.246,96.108,574.451,569.77,0.0
55951.0,STARLINK-5908,PAYLOAD,2024-05-12 19:38:46,14.98312658,0.0003371,69.9994,163.1729,269.7624,90.3149,-0.00046144,-5.592e-05,0.0,0 STARLINK-5908,1 55951U 23037AP  24133.81859195 -.00005592  00000-0 -46144-3 0  9994,2 55951  69.9994 163.1729 0003371 269.7624  90.3149 14.98312658 64241,6950.247,96.108,574.454,569.769,0.0
55951.0,STARLINK-5908,PAYLOAD,2024-05-13 05:15:35,14.98303139,0.0003313,69.9996,162.1623,266.3048,93.7732,-0.00015023,-1.884e-05,0.0,0 STARLINK-5908,1 55951U 23037AP  24134.21916349 -.00001884  00000-0 -15023-3 0  9996,2 55951  69.9996 162.1623 0003313 266.3048  93.7732 14.98303139 64647,6950.276,96.109,574.444,569.838,0.0
55951.0,STARLINK-5908,PAYLOAD,2024-05-13 13:16:16,14.98306182,0.0003217,69.9997,161.3207,263.1309,96.9485,-0.00014318,-1.8e-05,0.0,0 STARLINK-5908,1 55951U 23037AP  24134.55296788 -.00001800  00000-0 -14318-3 0  9995,2 55951  69.9997 161.3207 0003217 263.1309  96.9485 14.98306182 64354,6950.267,96.109,574.367,569.896,0.0
55951.0,STARLINK-5908,PAYLOAD,2024-05-13 19:40:48,14.98316049,0.0003231,69.9987,160.6483,264.9599,95.1192,-6.8533e-05,-9.1e-06,0.0,0 STARLINK-5908,1 55951U 23037AP  24134.82000666 -.00000910  00000-0 -68533-4 0  9993,2 55951  69.9987 160.6483 0003231 264.9599  95.1192 14.98316049 64738,6950.236,96.108,574.347,569.855,0.0
55951.0,STARLINK-5908,PAYLOAD,2024-05-14 11:42:09,14.98319602,0.000329,69.9981,158.964,260.0275,100.0513,0.00046705,5.483e-05,0.0,0 STARLINK-5908,1 55951U 23037AP  24135.48760850  .00005483  00000-0  46705-3 0  9998,2 55951  69.9981 158.9640 0003290 260.0275 100.0513 14.98319602 64494,6950.225,96.108,574.377,569.803,0.0
55951.0,STARLINK-5908,PAYLOAD,2024-05-15 11:44:10,14.98345336,0.0003268,69.9999,156.4393,257.7718,102.3075,0.00069116,8.167e-05,0.0,0 STARLINK-5908,1 55951U 23037AP  24136.48900658  .00008167  00000-0  69116-3 0  9994,2 55951  69.9999 156.4393 0003268 257.7718 102.3075 14.98345336 64986,6950.145,96.106,574.282,569.739,0.0
55951.0,STARLINK-5908,PAYLOAD,2024-05-16 05:21:36,14.98387425,0.0002978,70.0018,154.5893,244.5275,115.5576,0.0013078,0.00015569,0.0,0 STARLINK-5908,1 55951U 23037AP  24137.22334156  .00015569  00000-0  13078-2 0  9990,2 55951  70.0018 154.5893 0002978 244.5275 115.5576 14.98387425 65094,6950.015,96.103,573.95,569.811,0.0
55951.0,STARLINK-5908,PAYLOAD,2024-05-16 10:10:01,14.98355618,0.0003438,70.0,154.0834,255.6045,104.4732,-0.00029865,-3.657e-05,0.0,0 STARLINK-5908,1 55951U 23037AP  24137.42362292 -.00003657  00000-0 -29865-3 0  9993,2 55951  70.0000 154.0834 0003438 255.6045 104.4732 14.98355618 65129,6950.114,96.105,574.368,569.589,0.0
55951.0,STARLINK-5908,PAYLOAD,2024-05-16 18:10:41,14.98347666,0.0003219,70.0,153.241,264.286,95.7932,-0.00042649,-5.18e-05,0.0,0 STARLINK-5908,1 55951U 23037AP  24137.75742132 -.00005180  00000-0 -42649-3 0  9992,2 55951  70.0000 153.2410 0003219 264.2860  95.7932 14.98347666 64833,6950.138,96.106,574.241,569.766,0.0
55951.0,STARLINK-5908,PAYLOAD,2024-05-17 05:23:37,14.98338978,0.0003153,69.9999,152.0635,263.3877,96.6923,-0.00027146,-3.331e-05,0.0,0 STARLINK-5908,1 55951U 23037AP  24138.22474223 -.00003331  00000-0 -27146-3 0  9999,2 55951  69.9999 152.0635 0003153 263.3877  96.6923 14.98338978 65240,6950.165,96.106,574.222,569.839,0.0
55951.0,STARLINK-5908,PAYLOAD,2024-05-17 10:12:02,14.98329268,0.000311,70.0,151.5586,263.5596,96.5209,5.6999e-05,5.87e-06,0.0,0 STARLINK-5908,1 55951U 23037AP  24138.42502466  .00000587  00000-0  56999-4 0  9999,2 55951  70.0000 151.5586 0003110 263.5596  96.5209 14.98329268 64931,6950.195,96.107,574.222,569.899,0.0
